STARLINK-37237          
1 69185U 26114D   26169.48108729  .00138732  00000+0  78929-3 0  9997
2 69185  53.1574 195.9923 0000940  77.1130 282.9997 15.78073057  4975
STARLINK-37365          
1 69186U 26114E   26169.60806649  .00104832  00000+0  59958-3 0  9993
2 69186  53.1576 195.3620 0001035  60.3595 299.7529 15.78078932  4997
STARLINK-37209          
1 69187U 26114F   26169.60730034  .00154585  00000+0  87771-3 0  9992
2 69187  53.1572 195.3572 0000847  63.2656 296.8452 15.78065570  4997
STARLINK-37359          
1 69188U 26114G   26169.54351978  .00109032  00000+0  62321-3 0  9993
2 69188  53.1570 195.6692 0001041  89.2234 270.8907 15.78076255  4987
STARLINK-37440          
1 69189U 26114H   26169.58334491 -.02141537  00000+0 -22922-1 0  9990
2 69189  53.1590 195.0160 0001114  50.0842  37.0894 15.66709298  5049
STARLINK-37282          
1 69190U 26114J   26169.34706621  .00166956  00000+0  94442-3 0  9990
2 69190  53.1573 196.5747 0002351  99.7579 260.3708 15.78107717  4955
STARLINK-37422          
1 69191U 26114K   26169.58006821  .00348665  00000+0  16994-2 0  9996
2 69191  53.1566 195.1755 0001311 125.3552 234.7594 15.80876783  4995
STARLINK-37424          
1 69192U 26114L   26169.53724669 -.01714630  00000+0 -11601-1 0  9990
2 69192  53.1565 195.6280 0009653 116.8536 243.3473 15.77060997  4986
STARLINK-36666          
1 69193U 26114M   26169.45385509  .00308830  00000+0  15066-2 0  9996
2 69193  53.1569 195.8104 0001470  62.5361 297.5812 15.80964326  4970
STARLINK-37355          
1 69194U 26114N   26169.51632035  .00257896  00000+0  12600-2 0  9999
2 69194  53.1564 195.4877 0000785 156.2110 203.8949 15.81071029  4982
STARLINK-37166          
1 69195U 26114P   26169.51482113  .00162092  00000+0  80730-3 0  9993
2 69195  53.1565 195.4769 0001900  82.9833 277.1406 15.80929975  4984
STARLINK-36933          
1 69196U 26114Q   26169.57881052  .00200656  00000+0  99757-3 0  9993
2 69196  53.1568 195.1665 0001076  90.0228 270.0918 15.80854266  4993
STARLINK-37419          
1 69197U 26114R   26169.51406955  .00141331  00000+0  70680-3 0  9991
2 69197  53.1565 195.4718 0000977  96.2608 263.8526 15.80907725  4985
STARLINK-37321          
1 69198U 26114S   26169.51330941  .00211609  00000+0  10480-2 0  9990
2 69198  53.1568 195.4683 0001253 122.9441 237.1702 15.80904936  4981
STARLINK-37406          
1 69199U 26114T   26169.25955234  .00273438  00000+0  13118-2 0  9999
2 69199  53.1565 196.7282 0003083  63.0856 297.0481 15.81420973  4946
STARLINK-37761          
1 69200U 26114U   26169.58334491 -.02549251  00000+0 -23373-1 0  9990
2 69200  53.1593 195.1737 0001017  43.9743 327.8434 15.70474158  5049
STARLINK-37754          
1 69201U 26114V   26169.58334491 -.02583889  00000+0 -20005-1 0  9995
2 69201  53.1587 195.1224 0001025  50.0516 346.6307 15.74447423  5047
STARLINK-37649          
1 69202U 26114W   26169.51032001  .00319203  00000+0  15619-2 0  9990
2 69202  53.1562 195.4475 0001204 107.8753 252.2401 15.80870406  4982
STARLINK-37604          
1 69203U 26114X   26169.50956890  .00148544  00000+0  74172-3 0  9999
2 69203  53.1562 195.4414 0000910  75.3516 284.7608 15.80917854  4983
STARLINK-37669          
1 69204U 26114Y   26169.58334491 -.02539103  00000+0 -20247-1 0  9996
2 69204  53.1588 195.0994 0001121  49.4858 358.2124 15.73711386  5049
STARLINK-37691          
1 69205U 26114Z   26169.58903039  .00135951  00000+0  77349-3 0  9993
2 69205  53.1574 195.2329 0001024  86.8943 273.2196 15.78081716  4991
STARLINK-37671          
1 69206U 26114AA  26169.51838581  .00086269  00000+0  49548-3 0  9993
2 69206  53.1581 195.5014 0001029  89.9223 270.1916 15.78064365  4980
STARLINK-37647          
1 69207U 26114AB  26169.57128451  .00146828  00000+0  73311-3 0  9991
2 69207  53.1560 195.1140 0002152 143.3046 216.8124 15.80923607  4995
STARLINK-37562          
1 69208U 26114AC  26169.58375647  .00215943  00000+0  12123-2 0  9992
2 69208  53.1573 195.1990 0000983  39.6017 320.5076 15.78128439  4994
STARLINK-37682          
1 69209U 26114AD  26169.50505787  .00236844  00000+0  11707-2 0  9995
2 69209  53.1561 195.4110 0002075 216.4311 143.6571 15.80875361  4984
STARLINK-37402          
1 69210U 26114AE  26169.63075446  .00242855  00000+0  11955-2 0  9999
2 69210  53.1561 194.7724 0000911 142.8903 217.2183 15.80948780  5002
STARLINK-37613          
1 69211U 26115A   26169.03759731  .00029316  00000+0  53832-3 0  9997
2 69211  97.2839 186.1596 0001023 109.9870 250.1492 15.49208527  4791
STARLINK-37713          
1 69212U 26115B   26169.58334491  .00005650  00000+0  10545-3 0  9999
2 69212  97.2850 186.8365 0001878  98.1862 358.8421 15.49192643  4917
STARLINK-37716          
1 69213U 26115C   26169.58334491 -.02800004  00000+0 -58621-1 0  9995
2 69213  97.2850 186.8908 0002751 115.6834 111.6697 15.49323415  4919
STARLINK-37620          
1 69214U 26115D   26169.50401857  .00044510  00000+0  81447-3 0  9991
2 69214  97.2837 186.5962 0000663  76.7916 283.3409 15.49223800  4869
