OBJECT_NAME,OBJECT_ID,EPOCH,MEAN_MOTION,ECCENTRICITY,INCLINATION,RA_OF_ASC_NODE,ARG_OF_PERICENTER,MEAN_ANOMALY,EPHEMERIS_TYPE,CLASSIFICATION_TYPE,NORAD_CAT_ID,ELEMENT_SET_NO,REV_AT_EPOCH,BSTAR,MEAN_MOTION_DOT,MEAN_MOTION_DDOT
STARLINK-37237,2026-114D,2026-06-18T11:32:45.941856,15.78073057,.00009401,53.1574,195.9923,77.1130,282.9997,0,U,69185,999,497,.78928733E-3,.138732E-2,0
STARLINK-37365,2026-114E,2026-06-18T14:35:36.944736,15.78078932,.00010358,53.1576,195.3620,60.3595,299.7529,0,U,69186,999,499,.59957591E-3,.104832E-2,0
STARLINK-37209,2026-114F,2026-06-18T14:34:30.749376,15.78065570,.00008475,53.1572,195.3572,63.2656,296.8452,0,U,69187,999,499,.87770505E-3,.154585E-2,0
STARLINK-37359,2026-114G,2026-06-18T13:02:40.108992,15.78076255,.00010419,53.1570,195.6692,89.2234,270.8907,0,U,69188,999,498,.62320813E-3,.109032E-2,0
STARLINK-37440,2026-114H,2026-06-18T14:00:01.000224,15.66709298,.00011142,53.1590,195.0160,50.0842,37.0894,0,U,69189,999,504,-.22921961E-1,-.2141537E-1,0
STARLINK-37282,2026-114J,2026-06-18T08:19:46.520544,15.78107717,.00023519,53.1573,196.5747,99.7579,260.3708,0,U,69190,999,495,.94442417E-3,.166956E-2,0
STARLINK-37422,2026-114K,2026-06-18T13:55:17.893344,15.80876783,.00013119,53.1566,195.1755,125.3552,234.7594,0,U,69191,999,499,.16993744E-2,.348665E-2,0
STARLINK-37424,2026-114L,2026-06-18T12:53:38.114016,15.77060997,.00096535,53.1565,195.6280,116.8536,243.3473,0,U,69192,999,498,-.1160144E-1,-.171463E-1,0
STARLINK-36666,2026-114M,2026-06-18T10:53:33.079776,15.80964326,.000147,53.1569,195.8104,62.5361,297.5812,0,U,69193,999,497,.15065884E-2,.30883E-2,0
STARLINK-37355,2026-114N,2026-06-18T12:23:30.078240,15.81071029,.0000785,53.1564,195.4877,156.2110,203.8949,0,U,69194,999,498,.12599681E-2,.257896E-2,0
STARLINK-37166,2026-114P,2026-06-18T12:21:20.545632,15.80929975,.00019007,53.1565,195.4769,82.9833,277.1406,0,U,69195,999,498,.80730362E-3,.162092E-2,0
STARLINK-36933,2026-114Q,2026-06-18T13:53:29.228928,15.80854266,.00010766,53.1568,195.1665,90.0228,270.0918,0,U,69196,999,499,.99756676E-3,.200656E-2,0
STARLINK-37419,2026-114R,2026-06-18T12:20:15.609120,15.80907725,.00009772,53.1565,195.4718,96.2608,263.8526,0,U,69197,999,498,.70679792E-3,.141331E-2,0
STARLINK-37321,2026-114S,2026-06-18T12:19:09.933024,15.80904936,.00012533,53.1568,195.4683,122.9441,237.1702,0,U,69198,999,498,.10480441E-2,.211609E-2,0
STARLINK-37406,2026-114T,2026-06-18T06:13:45.322176,15.81420973,.00030837,53.1565,196.7282,63.0856,297.0481,0,U,69199,999,494,.13118166E-2,.273438E-2,0
STARLINK-37761,2026-114U,2026-06-18T14:00:01.000224,15.70474158,.00010172,53.1593,195.1737,43.9743,327.8434,0,U,69200,999,504,-.23373255E-1,-.2549251E-1,0
STARLINK-37754,2026-114V,2026-06-18T14:00:01.000224,15.74447423,.00010252,53.1587,195.1224,50.0516,346.6307,0,U,69201,999,504,-.20004822E-1,-.2583889E-1,0
STARLINK-37649,2026-114W,2026-06-18T12:14:51.648864,15.80870406,.00012046,53.1562,195.4475,107.8753,252.2401,0,U,69202,999,498,.15618987E-2,.319203E-2,0
STARLINK-37604,2026-114X,2026-06-18T12:13:46.752960,15.80917854,.00009107,53.1562,195.4414,75.3516,284.7608,0,U,69203,999,498,.74172234E-3,.148544E-2,0
STARLINK-37669,2026-114Y,2026-06-18T14:00:01.000224,15.73711386,.00011215,53.1588,195.0994,49.4858,358.2124,0,U,69204,999,504,-.2024675E-1,-.2539103E-1,0
STARLINK-37691,2026-114Z,2026-06-18T14:08:12.225696,15.78081716,.00010241,53.1574,195.2329,86.8943,273.2196,0,U,69205,999,499,.77349439E-3,.135951E-2,0
STARLINK-37671,2026-114AA,2026-06-18T12:26:28.533984,15.78064365,.00010292,53.1581,195.5014,89.9223,270.1916,0,U,69206,999,498,.49547892E-3,.86269E-3,0
STARLINK-37647,2026-114AB,2026-06-18T13:42:38.981664,15.80923607,.00021522,53.1560,195.1140,143.3046,216.8124,0,U,69207,999,499,.7331068E-3,.146828E-2,0
STARLINK-37562,2026-114AC,2026-06-18T14:00:36.559008,15.78128439,.00009835,53.1573,195.1990,39.6017,320.5076,0,U,69208,999,499,.12123434E-2,.215943E-2,0
STARLINK-37682,2026-114AD,2026-06-18T12:07:16.999968,15.80875361,.00020753,53.1561,195.4110,216.4311,143.6571,0,U,69209,999,498,.11707307E-2,.236844E-2,0
STARLINK-37402,2026-114AE,2026-06-18T15:08:17.185344,15.80948780,.00009117,53.1561,194.7724,142.8903,217.2183,0,U,69210,999,500,.11954882E-2,.242855E-2,0
STARLINK-37613,2026-115A,2026-06-18T00:54:08.407584,15.49208527,.00010235,97.2839,186.1596,109.9870,250.1492,0,U,69211,999,479,.5383204E-3,.29316E-3,0
STARLINK-37713,2026-115B,2026-06-18T14:00:01.000224,15.49192643,.00018784,97.2850,186.8365,98.1862,358.8421,0,U,69212,999,491,.10544954E-3,.565E-4,0
STARLINK-37716,2026-115C,2026-06-18T14:00:01.000224,15.49323415,.00027513,97.2850,186.8908,115.6834,111.6697,0,U,69213,999,491,-.5862132E-1,-.2800004E-1,0
STARLINK-37620,2026-115D,2026-06-18T12:05:47.204448,15.49223800,.00006631,97.2837,186.5962,76.7916,283.3409,0,U,69214,999,486,.81446537E-3,.4451E-3,0
